#dP2020  7 16  0  0  0.00000000      97 __u+U IGS14 FIT  IAC
## 2114 345600.00000000   900.00000000 59046 0.0000000000000
+  120   C01C02C04C05C06C07C08C09C10C11C12C13C14C16C19C20C21
+        C22C23C24C25C26C27C28C29C30C32C33C34C35C36C37C38C39
+        C40C43C44C45C46E01E02E03E04E05E07E08E09E11E12E13E14
+        E15E18E19E21E24E25E26E27E30E31E33E36G01G02G03G04G05
+        G06G07G08G09G10G11G12G13G14G15G16G17G18G19G20G21G22
+        G24G25G26G27G28G29G30G31G32J01J02J03J07R01R02R03R04
+        R05R07R08R09R11R12R13R14R15R16R17R18R19R20R21R23R24
+        R26  0  0  0  0  0  0  0  0  0  0  0  0  0  0  0  0
++         0  0  0  0  0  0  0  0  0  0  0  0  0  0  0  0  0
++         0  0  0  0  0  0  0  0  0  0  0  0  0  0  0  0  0
++         0  0  0  0  0  0  0  0  0  0  0  0  0  0  0  0  0
++         0  0  0  0  0  0  0  0  0  0  0  0  0  0  0  0  0
++         0  0  0  0  0  0  0  0  0  0  0  0  0  0  0  0  0
++         0  0  0  0  0  0  0  0  0  0  0  0  0  0  0  0  0
++         0  0  0  0  0  0  0  0  0  0  0  0  0  0  0  0  0
++         0  0  0  0  0  0  0  0  0  0  0  0  0  0  0  0  0
%c M  cc GPS ccc cccc cccc cccc cccc ccccc ccccc ccccc ccccc
%c cc cc ccc ccc cccc cccc cccc cccc ccccc ccccc ccccc ccccc
%f  1.2500000  1.025000000  0.00000000000  0.000000000000000
%f  0.0000000  0.000000000  0.00000000000  0.000000000000000
%i    0    0    0    0      0      0      0      0         0
%i    0    0    0    0      0      0      0      0         0
/* INFORMATION & ANALYSIS CENTER (IAC)            FINAL DATA
/* S/V CLOCKS ARE ALIGNED TO GNSS TIME                      
/* G:C1WC2W R:C1PC2P E:C1XC5X C:C2IC6I J:C1CC2S             
/* PCV:IGS14_2113 OL/AL:FES2004  NONE     YN ORB:CoN CLK:CoN
*  2020 07 16 18 45  0.00000000
PC01 -34379.189059  24446.796516    594.193821   -320.530960
PC02   4514.899910  41903.334220   -526.562241    211.591747
PC04 -39633.533488  14433.146418   -362.623678   -101.052985
PC05  21971.496307  35982.723567   -527.997137   -642.943293
PC06 -22958.040935  30579.362387  17695.322610    783.652199
PC07  -9553.885103  37023.089243  18552.296166    -40.080650
PC08  -9984.566073  19046.609237 -36198.962965   -379.433162
PC09 -10083.571649  29709.928966  28239.725876    680.598498
PC10    137.732819  41724.344578   7750.441752   -235.171666
PC11  17389.171304   7939.755597 -20258.096913   -494.941326
PC12  -2119.357509  16483.992346 -22396.525361    434.150623
PC13   5119.434393  25622.666427 -32943.531625    546.258396
PC14  10998.062147  16877.301395  19366.884598    677.798725
PC16 -21246.924015  30825.006600  19299.184493   -599.266813
PC19 -14825.398622  -6774.052422 -22621.185622    477.087017
PC20  -5978.524117 -23476.467892 -13802.034368   -839.168004
PC21  -6822.486471  26834.505805  -3577.335708   -660.703950
PC22 -15299.984849  14258.366757 -18486.859641   -771.707641
PC23  18216.743975  -4015.664240 -20746.067722   -844.366323
PC24  15001.391554  21465.810902   9620.636166   -763.865552
PC25  24016.829525  11483.749212  -8346.277621   -688.274220
PC26  -1132.373069  18223.943311  21094.590565    757.055377
PC27  12317.524042 -17519.844793  17879.437844    365.424286
PC28  25559.068593 -10920.336158   2440.265747   -196.003321
PC29 -23897.123675  -1134.729598  14356.774943    256.833962
PC30  -8270.035335 -13728.784054  22837.068202    347.362995
PC32   6650.025658 -26853.827880   3616.626811   -876.432103
PC33  14877.182160   6828.954423  22610.905768   -798.765109
PC34   8824.354229  13533.537461 -22764.819510   -900.521921
PC35 -25224.863455  11683.299488  -2253.473456   -747.183378
PC36 -23738.181792 -12194.221109   8170.412921   -870.877025
PC37   2181.166570 -17853.991662 -21312.776031   -871.397316
PC38  -9154.064613  22043.017937 -34762.720303     89.265605
PC39 -19007.341339  32206.292010  19369.322678     19.314414
PC40  -5745.624266  40015.357824  12338.583993     62.172531
PC43  23766.619019   1590.448185 -14562.191886   -285.090361
PC44 -11835.655185  17996.163226 -17734.569848   -322.009158
PC45 -18134.678757   4009.291326  20843.241178    181.301771
PC46 -15562.249550 -21298.020558  -9131.237413 999999.999999
PE01 -17475.398934 -21735.317820   9912.543281   -899.628669
PE02  17505.463664  21673.068855  -9991.914178    147.747765
PE03  12204.551910  12291.609440  24009.086343   -321.288807
PE04 -21519.175000   7497.404637 -18883.565849   -567.111552
PE05  -4375.450719  25086.684315  15101.912221   -362.713506
PE07  18282.727717 -23128.532719   2570.791554   -409.797064
PE08  21416.017949  -7895.565170  18844.798489   6148.737839
PE09 -18068.506152  23330.117993  -2449.035467   5994.609639
PE11 -18566.110360  11728.653685 -19852.672265   4146.097132
PE12 -29425.397186   -116.429247  -3138.117245   5703.226527
PE13  18757.244972 -11617.972042  19732.797859    402.365234
PE14 -23095.100761  14797.757605   2537.376165  -1086.497830
PE15  29412.211015   -123.919224   3340.888228    859.766836
PE18  25497.070053  -3659.860115 -14640.136618  -1189.581478
PE19 -10521.691931 -14098.392168 -23795.207933     29.318515
PE21  -6615.615843 -27529.174782  -8619.486523   -610.451097
PE24  -8731.494882  17072.153064  22538.557326   5347.550686
PE25   6509.370903  27522.052809   8759.224066   -513.709893
PE26  -3363.277467 -16473.144976  24359.571161   2952.619571
PE27   8376.372637 -17377.984829 -22443.132117    176.125482
PE30  18509.420180   3469.649477 -22840.730348   3742.249085
PE31 -18376.349841  -2913.878374  23029.519473   -473.249555
PE33 -22787.778439 -11448.891979  15021.911237   -464.853083
PE36   2917.575435  16293.389106 -24541.004126    533.282923
PG01  19690.395504  14736.979676 -10684.967190     26.100389
PG02   1278.767625 -15674.666036  22049.939309   -488.200989
PG03  12231.690018  20283.347421  12055.762468   -241.663904
PG04  13327.068883   8497.765985  21361.307807   -113.213803
PG05  -1082.886235 -25647.654620   6258.423060    -16.789149
PG06  14786.838872  -9110.148676  20156.142041   -303.880294
PG07  25652.155147   5158.550422  -5573.852464   -328.698510
PG08   2884.945690  16363.051145 -20650.638487    -41.170625
PG09  20738.124706  -2842.723975  16309.620617   -254.683509
PG10 -12716.705155  10192.215882 -20835.440575   -401.405099
PG11  11581.826414  13927.719073 -19822.344128   -219.357622
PG12 -10410.167672 -21381.171560  11748.632952     92.910076
PG13   6534.960970 -18812.800044 -17641.420303     27.313098
PG14 -17861.521790  18542.261962   6466.959112      1.840178
PG15  -5822.227241 -16178.684947 -20483.267438   -217.105366
PG16    258.233230  26084.262150   3292.708600   -183.532811
PG17  21781.192036 -14977.925510  -1897.817640    296.879807
PG18 -25331.989169  -4910.401477  -6380.159667    247.794761
PG19  19403.185218 -17351.512535   4858.875546   -131.177633
PG20 -16764.669709  -2279.161601 -20597.811087    527.285291
PG21 -16824.370056   8477.271327 -17876.441503     24.450725
PG22  10396.917747  24099.464443   4770.707269   -771.574817
PG24 -18502.666089 -14849.086691 -12508.071914    -15.736641
PG25 -15067.451990 -11787.353681  18297.785687     24.043117
PG26  -6836.187472  20380.287626  15419.146075    244.492999
PG27  -7965.666958  20260.266016 -15123.825360   -347.449183
PG28  12451.681314 -11468.627854 -19927.421719    698.970670
PG29 -18376.544997  -2080.945647  19035.635502   -151.710859
PG30  21776.548413  -3266.835764 -14954.953166   -263.304595
PG31 -13799.011559  10091.738788  20394.148099    -56.006420
PG32 -20737.149189  16361.280762  -1763.984143    318.022629
PJ01 -22879.827637  31692.253991 -11275.248290   -218.877146
PJ02 -25419.914405  21533.108255  30721.622319     -1.340568
PJ03 -34406.262000  22500.777037  -5034.070262     -0.109583
PJ07 -25407.266913  33657.780472    -23.766977     -0.005998
PR01 -10662.095991  -3073.312717 -22963.453842     64.636073
PR02 -13012.954282  17650.763804 -12939.962163    436.561439
PR03  -6667.077914  24244.194565   4190.102675     18.658609
PR04   3241.268525  16961.746506  18802.297129     56.513879
PR05  11361.501563    143.142029  22852.357668     54.188279
PR07   6465.381325 -24248.624023  -4645.225945    -38.514278
PR08  -3259.326860 -17024.835699 -18663.049005    -53.503088
PR09   6969.802244  -9039.913321 -22790.337831    143.754527
PR11 -16044.682951 -19756.382843  -1190.447503    -30.748581
PR12 -18018.301757 -10451.610509  14764.438888    147.658013
PR13  -9778.020352   5355.305165  22930.540314    -41.289865
PR14   4241.388389  18064.497746  17529.483537     53.404544
PR15  15570.556060  20097.426206   2143.635993    106.940157
PR16  18123.660940   9425.556365 -15214.759116     -4.686692
PR17  -7872.672916  11303.939380 -21476.563930    341.752255
PR18  10596.242084   8136.758851 -21733.161435     42.505915
PR19  23048.259223   1518.167939 -10822.598402   -102.626809
PR20  22838.596702  -7253.357524   8802.124397   -416.896997
PR21   6800.319462 -11190.606140  21877.415247   -138.547638
PR23 -25082.501241   2328.240554   4008.825949    319.060232
PR24 -22379.495441   7869.148612  -9386.961129      6.511918
PR26  24508.695004  -5845.022604   3881.905257   -365.052571
EOF
